[{"OBJECT_NAME":"STARLINK-35982","OBJECT_ID":"2025-280H","EPOCH":"2026-03-09T21:27:09.755424","MEAN_MOTION":14.98311944,"ECCENTRICITY":0.00028949,"INCLINATION":70.0018,"RA_OF_ASC_NODE":334.0542,"ARG_OF_PERICENTER":276.8858,"MEAN_ANOMALY":83.1972,"EPHEMERIS_TYPE":0,"CLASSIFICATION_TYPE":"U","NORAD_CAT_ID":66828,"ELEMENT_SET_NO":999,"REV_AT_EPOCH":1610,"BSTAR":0.00020800012,"MEAN_MOTION_DOT":2.389e-5,"MEAN_MOTION_DDOT":0},{"OBJECT_NAME":"FENGYUN 1C DEB","OBJECT_ID":"1999-025CJB","EPOCH":"2026-03-04T10:30:16.287264","MEAN_MOTION":14.84272597,"ECCENTRICITY":0.00915644,"INCLINATION":98.0869,"RA_OF_ASC_NODE":145.0566,"ARG_OF_PERICENTER":112.3308,"MEAN_ANOMALY":248.7643,"EPHEMERIS_TYPE":0,"CLASSIFICATION_TYPE":"U","NORAD_CAT_ID":31837,"ELEMENT_SET_NO":999,"REV_AT_EPOCH":99570,"BSTAR":0.0020173845,"MEAN_MOTION_DOT":0.00018196,"MEAN_MOTION_DDOT":0}]
